OBJECT_NAME,OBJECT_ID,EPOCH,MEAN_MOTION,ECCENTRICITY,INCLINATION,RA_OF_ASC_NODE,ARG_OF_PERICENTER,MEAN_ANOMALY,EPHEMERIS_TYPE,CLASSIFICATION_TYPE,NORAD_CAT_ID,ELEMENT_SET_NO,REV_AT_EPOCH,BSTAR,MEAN_MOTION_DOT,MEAN_MOTION_DDOT
STARLINK-3847,2022-045C,2026-02-27T06:07:29.098560,15.08835894,.00013768,53.2182,255.9657,87.8316,272.2834,0,U,52333,999,21405,.50492501E-4,.516E-5,0
STARLINK-3880,2022-045D,2026-02-27T05:51:35.164800,15.08836157,.00015254,53.2161,256.0150,88.8842,271.2325,0,U,52334,999,21405,.41980472E-4,.38E-5,0
STARLINK-3814,2022-045E,2026-02-27T05:46:18.166656,15.08842475,.00016371,53.2155,256.0312,85.5936,274.5243,0,U,52335,999,21406,.11132797E-3,.1484E-4,0
STARLINK-3823,2022-045F,2026-02-26T13:15:18.114336,15.08838164,.0001094,53.2172,258.9155,92.1726,267.9391,0,U,52336,999,21396,.41001E-4,.365E-5,0
STARLINK-3797,2022-045G,2026-02-27T06:02:10.724064,15.08838358,.00012818,53.2162,255.9827,90.0404,270.0735,0,U,52337,999,21406,.62499134E-4,.707E-5,0
STARLINK-3792,2022-045J,2026-02-27T06:12:43.266240,15.08843755,.00013618,53.2145,255.5900,87.8695,272.2453,0,U,52339,999,21407,.78568736E-4,.963E-5,0
STARLINK-3818,2022-045K,2026-02-26T20:36:29.387808,15.08842421,.0001488,53.2155,247.7422,89.1710,270.9453,0,U,52340,999,21413,.50589E-4,.517E-5,0
STARLINK-3843,2022-045L,2026-02-26T21:28:08.911776,15.08838874,.0001327,53.2156,257.5342,99.7683,260.3459,0,U,52341,999,21401,.16264E-4,-.29E-6,0
STARLINK-3850,2022-045M,2026-02-26T23:52:34.829184,15.08836628,.00013914,53.2164,247.2476,86.8904,273.2248,0,U,52342,999,21416,-.4562278E-5,-.361E-5,0
STARLINK-3849,2022-045N,2026-02-27T06:18:05.105376,15.08838138,.0001486,53.2160,255.9313,88.0039,272.1123,0,U,52343,999,21407,.1899807E-4,.14E-6,0
STARLINK-3851,2022-045P,2026-02-27T05:58:13.521504,15.08840018,.00019805,53.2158,246.0609,93.1445,266.9774,0,U,52344,999,21420,.728749E-5,-.172E-5,0
STARLINK-3852,2022-045Q,2026-02-27T05:01:19.100640,15.08826584,.00012934,53.2162,246.3340,85.2111,274.9029,0,U,52345,999,21418,.92455401E-4,.1183E-4,0
STARLINK-3812,2022-045R,2026-02-27T05:48:59.494464,15.08846578,.00014789,53.2166,246.0316,88.1792,271.9370,0,U,52346,999,21420,.10590925E-3,.1398E-4,0
STARLINK-3826,2022-045S,2026-02-27T06:04:53.339232,15.08840979,.0001533,53.2160,245.9804,89.4645,270.6523,0,U,52347,999,21420,-.2393403E-5,-.326E-5,0
STARLINK-3829,2022-045T,2026-02-27T05:37:00.766560,15.08838721,.00014297,53.2150,246.0597,89.6889,270.4267,0,U,52348,999,21420,.4461028E-4,.422E-5,0
STARLINK-3819,2022-045U,2026-02-27T05:52:54.265728,15.08843942,.00012051,53.2158,246.0100,98.8574,261.2555,0,U,52349,999,21420,.81644477E-4,.1012E-4,0
STARLINK-3754,2022-045V,2026-02-27T05:31:42.949344,15.08836722,.00015634,53.2163,246.0763,91.4996,268.6175,0,U,52350,999,21420,.38979493E-4,.332E-5,0
STARLINK-3838,2022-045X,2026-02-27T05:15:48.992256,15.08836507,.00014169,53.2157,246.1256,92.0792,268.0362,0,U,52352,999,21420,.54743693E-4,.583E-5,0
STARLINK-3807,2022-045Y,2026-02-27T05:26:24.991296,15.08836027,.00014596,53.2166,246.0925,87.2784,272.8375,0,U,52353,999,21420,.28062498E-4,.159E-5,0
STARLINK-3877,2022-045AA,2026-02-26T21:24:11.526912,15.08833153,.0001378,53.2144,247.5967,98.5194,261.5954,0,U,52355,999,21415,-.61122E-5,-.385E-5,0
STARLINK-3801,2022-045AB,2026-02-27T05:05:12.151680,15.08848446,.00015319,53.2153,246.1861,89.5560,270.5608,0,U,52356,999,21420,.95062842E-4,.1226E-4,0
STARLINK-3821,2022-045AC,2026-02-27T05:10:31.021248,15.08835402,.00016678,53.2154,246.1418,90.7540,269.3643,0,U,52357,999,21420,.30212839E-4,.193E-5,0
STARLINK-3837,2022-045AD,2026-02-26T12:50:09.656736,15.08840567,.0001502,53.2152,249.1977,89.2888,270.8277,0,U,52358,999,21410,.58084E-4,.637E-5,0
STARLINK-3853,2022-045AE,2026-02-27T05:06:35.972640,15.08836717,.00014575,53.2154,246.1645,86.9762,273.1396,0,U,52359,999,21420,.5789088E-5,-.196E-5,0
STARLINK-3728,2022-045AG,2026-02-26T13:00:45.303264,15.08840935,.0000717,53.2199,249.1650,116.9341,243.1725,0,U,52361,999,21410,-.10622E-3,-.1978E-4,0
STARLINK-3848,2022-045AH,2026-02-27T04:29:26.883744,15.08836170,.00015416,53.2144,236.2688,89.7580,270.3589,0,U,52362,999,21433,.701712E-6,-.277E-5,0
STARLINK-3830,2022-045AJ,2026-02-26T20:52:23.209248,15.08840458,.0001516,53.2153,247.6943,91.8565,268.2600,0,U,52363,999,21415,.86624E-5,-.15E-5,0
STARLINK-3820,2022-045AK,2026-02-26T23:22:04.427904,15.08838075,.00014757,53.2160,237.1411,85.2185,274.8976,0,U,52364,999,21430,-.18567984E-4,-.583E-5,0
STARLINK-3874,2022-045AL,2026-02-27T04:40:01.618752,15.08847007,.00014808,53.2161,236.2357,83.3630,276.7531,0,U,52365,999,21433,.11954365E-3,.1615E-4,0
STARLINK-3808,2022-045AM,2026-02-26T21:52:00.050016,15.08841588,.000131,53.2157,237.5098,86.1736,273.9406,0,U,52366,999,21429,.3087E-4,.203E-5,0
