STARLINK-3847           
1 52333U 22045C   26058.25519790  .00000516  00000+0  50493-4 0  9994
2 52333  53.2182 255.9657 0001376  87.8316 272.2834 15.08835894214059
STARLINK-3880           
1 52334U 22045D   26058.24415700  .00000380  00000+0  41980-4 0  9990
2 52334  53.2161 256.0150 0001525  88.8842 271.2325 15.08836157214055
STARLINK-3814           
1 52335U 22045E   26058.24048804  .00001484  00000+0  11133-3 0  9990
2 52335  53.2155 256.0312 0001637  85.5936 274.5243 15.08842475214067
STARLINK-3823           
1 52336U 22045F   26057.55229299  .00000365  00000+0  41001-4 0  9998
2 52336  53.2172 258.9155 0001094  92.1726 267.9391 15.08838164213969
STARLINK-3797           
1 52337U 22045G   26058.25151301  .00000707  00000+0  62499-4 0  9999
2 52337  53.2162 255.9827 0001281  90.0404 270.0735 15.08838358214064
STARLINK-3792           
1 52339U 22045J   26058.25883410  .00000963  00000+0  78569-4 0  9993
2 52339  53.2145 255.5900 0001361  87.8695 272.2453 15.08843755214079
STARLINK-3818           
1 52340U 22045K   26057.85867347  .00000517  00000+0  50589-4 0  9998
2 52340  53.2155 247.7422 0001488  89.1710 270.9453 15.08842421214138
STARLINK-3843           
1 52341U 22045L   26057.89454759 -.00000029  00000+0  16264-4 0  9993
2 52341  53.2156 257.5342 0001327  99.7683 260.3459 15.08838874214011
STARLINK-3850           
1 52342U 22045M   26057.99484756 -.00000361  00000+0 -45623-5 0  9997
2 52342  53.2164 247.2476 0001391  86.8904 273.2248 15.08836628214169
STARLINK-3849           
1 52343U 22045N   26058.26255909  .00000014  00000+0  18998-4 0  9992
2 52343  53.2160 255.9313 0001486  88.0039 272.1123 15.08838138214078
STARLINK-3851           
1 52344U 22045P   26058.24876761 -.00000172  00000+0  72875-5 0  9997
2 52344  53.2158 246.0609 0001980  93.1445 266.9774 15.08840018214200
STARLINK-3852           
1 52345U 22045Q   26058.20924885  .00001183  00000+0  92455-4 0  9992
2 52345  53.2162 246.3340 0001293  85.2111 274.9029 15.08826584214181
STARLINK-3812           
1 52346U 22045R   26058.24235526  .00001398  00000+0  10591-3 0  9992
2 52346  53.2166 246.0316 0001478  88.1792 271.9370 15.08846578214202
STARLINK-3826           
1 52347U 22045S   26058.25339513 -.00000326  00000+0 -23934-5 0  9994
2 52347  53.2160 245.9804 0001533  89.4645 270.6523 15.08840979214205
STARLINK-3829           
1 52348U 22045T   26058.23403665  .00000422  00000+0  44610-4 0  9991
2 52348  53.2150 246.0597 0001429  89.6889 270.4267 15.08838721214207
STARLINK-3819           
1 52349U 22045U   26058.24507252  .00001012  00000+0  81644-4 0  9994
2 52349  53.2158 246.0100 0001205  98.8574 261.2555 15.08843942214200
STARLINK-3754           
1 52350U 22045V   26058.23035821  .00000332  00000+0  38979-4 0  9990
2 52350  53.2163 246.0763 0001563  91.4996 268.6175 15.08836722214204
STARLINK-3838           
1 52352U 22045X   26058.21931704  .00000583  00000+0  54744-4 0  9991
2 52352  53.2157 246.1256 0001416  92.0792 268.0362 15.08836507214208
STARLINK-3807           
1 52353U 22045Y   26058.22667814  .00000159  00000+0  28062-4 0  9994
2 52353  53.2166 246.0925 0001459  87.2784 272.8375 15.08836027214209
STARLINK-3877           
1 52355U 22045AA  26057.89180008 -.00000385  00000+0 -61122-5 0  9991
2 52355  53.2144 247.5967 0001378  98.5194 261.5954 15.08833153214158
STARLINK-3801           
1 52356U 22045AB  26058.21194620  .00001226  00000+0  95063-4 0  9997
2 52356  53.2153 246.1861 0001531  89.5560 270.5608 15.08848446214208
STARLINK-3821           
1 52357U 22045AC  26058.21563682  .00000193  00000+0  30213-4 0  9994
2 52357  53.2154 246.1418 0001667  90.7540 269.3643 15.08835402214203
STARLINK-3837           
1 52358U 22045AD  26057.53483399  .00000637  00000+0  58084-4 0  9994
2 52358  53.2152 249.1977 0001502  89.2888 270.8277 15.08840567214108
STARLINK-3853           
1 52359U 22045AE  26058.21291635 -.00000196  00000+0  57891-5 0  9998
2 52359  53.2154 246.1645 0001457  86.9762 273.1396 15.08836717214205
STARLINK-3728           
1 52361U 22045AG  26057.54219101 -.00001978  00000+0 -10622-3 0  9993
2 52361  53.2199 249.1650 0000717 116.9341 243.1725 15.08840935214100
STARLINK-3848           
1 52362U 22045AH  26058.18711671 -.00000277  00000+0  70171-6 0  9992
2 52362  53.2144 236.2688 0001541  89.7580 270.3589 15.08836170214338
STARLINK-3830           
1 52363U 22045AJ  26057.86971307 -.00000150  00000+0  86624-5 0  9990
2 52363  53.2153 247.6943 0001516  91.8565 268.2600 15.08840458214152
STARLINK-3820           
1 52364U 22045AK  26057.97366236 -.00000583  00000+0 -18568-4 0  9994
2 52364  53.2160 237.1411 0001475  85.2185 274.8976 15.08838075214302
STARLINK-3874           
1 52365U 22045AL  26058.19446318  .00001615  00000+0  11954-3 0  9996
2 52365  53.2161 236.2357 0001480  83.3630 276.7531 15.08847007214339
STARLINK-3808           
1 52366U 22045AM  26057.91111169  .00000203  00000+0  30870-4 0  9990
2 52366  53.2157 237.5098 0001310  86.1736 273.9406 15.08841588214294
